<?xml version="1.0" encoding="UTF-8"?>
<ndm xmlns:xsi="http://www.w3.org/2001/XMLSchema-instance" xsi:noNamespaceSchemaLocation="https://sanaregistry.org/r/ndmxml_unqualified/ndmxml-2.0.0-master-2.0.xsd">
<omm id="CCSDS_OMM_VERS" version="2.0">
<header><CREATION_DATE/><ORIGINATOR/></header><body><segment><metadata><OBJECT_NAME>ONEWEB-0196</OBJECT_NAME><OBJECT_ID>2021-031J</OBJECT_ID><CENTER_NAME>EARTH</CENTER_NAME><REF_FRAME>TEME</REF_FRAME><TIME_SYSTEM>UTC</TIME_SYSTEM><MEAN_ELEMENT_THEORY>SGP4</MEAN_ELEMENT_THEORY></metadata><data><meanElements><EPOCH>2025-08-13T07:41:41.368416</EPOCH><MEAN_MOTION>13.14503473</MEAN_MOTION><ECCENTRICITY>.0001678</ECCENTRICITY><INCLINATION>87.9082</INCLINATION><RA_OF_ASC_NODE>350.9774</RA_OF_ASC_NODE><ARG_OF_PERICENTER>98.9204</ARG_OF_PERICENTER><MEAN_ANOMALY>261.2116</MEAN_ANOMALY></meanElements><tleParameters><EPHEMERIS_TYPE>0</EPHEMERIS_TYPE><CLASSIFICATION_TYPE>U</CLASSIFICATION_TYPE><NORAD_CAT_ID>48218</NORAD_CAT_ID><ELEMENT_SET_NO>999</ELEMENT_SET_NO><REV_AT_EPOCH>20778</REV_AT_EPOCH><BSTAR>-.22809E-4</BSTAR><MEAN_MOTION_DOT>.4E-7</MEAN_MOTION_DOT><MEAN_MOTION_DDOT>0</MEAN_MOTION_DDOT></tleParameters></data></segment></body></omm>
<omm id="CCSDS_OMM_VERS" version="2.0">
<header><CREATION_DATE/><ORIGINATOR/></header><body><segment><metadata><OBJECT_NAME>ONEWEB-0183</OBJECT_NAME><OBJECT_ID>2021-031K</OBJECT_ID><CENTER_NAME>EARTH</CENTER_NAME><REF_FRAME>TEME</REF_FRAME><TIME_SYSTEM>UTC</TIME_SYSTEM><MEAN_ELEMENT_THEORY>SGP4</MEAN_ELEMENT_THEORY></metadata><data><meanElements><EPOCH>2025-08-13T14:23:33.945216</EPOCH><MEAN_MOTION>13.14504188</MEAN_MOTION><ECCENTRICITY>.0001932</ECCENTRICITY><INCLINATION>87.9080</INCLINATION><RA_OF_ASC_NODE>350.9334</RA_OF_ASC_NODE><ARG_OF_PERICENTER>104.1694</ARG_OF_PERICENTER><MEAN_ANOMALY>255.9650</MEAN_ANOMALY></meanElements><tleParameters><EPHEMERIS_TYPE>0</EPHEMERIS_TYPE><CLASSIFICATION_TYPE>U</CLASSIFICATION_TYPE><NORAD_CAT_ID>48219</NORAD_CAT_ID><ELEMENT_SET_NO>999</ELEMENT_SET_NO><REV_AT_EPOCH>20791</REV_AT_EPOCH><BSTAR>-.32078E-3</BSTAR><MEAN_MOTION_DOT>-.106E-5</MEAN_MOTION_DOT><MEAN_MOTION_DDOT>0</MEAN_MOTION_DDOT></tleParameters></data></segment></body></omm>
<omm id="CCSDS_OMM_VERS" version="2.0">
<header><CREATION_DATE/><ORIGINATOR/></header><body><segment><metadata><OBJECT_NAME>ONEWEB-0185</OBJECT_NAME><OBJECT_ID>2021-031L</OBJECT_ID><CENTER_NAME>EARTH</CENTER_NAME><REF_FRAME>TEME</REF_FRAME><TIME_SYSTEM>UTC</TIME_SYSTEM><MEAN_ELEMENT_THEORY>SGP4</MEAN_ELEMENT_THEORY></metadata><data><meanElements><EPOCH>2025-08-13T07:42:48.571200</EPOCH><MEAN_MOTION>13.14502056</MEAN_MOTION><ECCENTRICITY>.0001733</ECCENTRICITY><INCLINATION>87.9079</INCLINATION><RA_OF_ASC_NODE>350.9543</RA_OF_ASC_NODE><ARG_OF_PERICENTER>112.3442</ARG_OF_PERICENTER><MEAN_ANOMALY>247.7872</MEAN_ANOMALY></meanElements><tleParameters><EPHEMERIS_TYPE>0</EPHEMERIS_TYPE><CLASSIFICATION_TYPE>U</CLASSIFICATION_TYPE><NORAD_CAT_ID>48220</NORAD_CAT_ID><ELEMENT_SET_NO>999</ELEMENT_SET_NO><REV_AT_EPOCH>20780</REV_AT_EPOCH><BSTAR>-.1081E-6</BSTAR><MEAN_MOTION_DOT>.13E-6</MEAN_MOTION_DOT><MEAN_MOTION_DDOT>0</MEAN_MOTION_DDOT></tleParameters></data></segment></body></omm>
<omm id="CCSDS_OMM_VERS" version="2.0">
<header><CREATION_DATE/><ORIGINATOR/></header><body><segment><metadata><OBJECT_NAME>ONEWEB-0187</OBJECT_NAME><OBJECT_ID>2021-031M</OBJECT_ID><CENTER_NAME>EARTH</CENTER_NAME><REF_FRAME>TEME</REF_FRAME><TIME_SYSTEM>UTC</TIME_SYSTEM><MEAN_ELEMENT_THEORY>SGP4</MEAN_ELEMENT_THEORY></metadata><data><meanElements><EPOCH>2025-08-13T14:32:30.589440</EPOCH><MEAN_MOTION>13.14502861</MEAN_MOTION><ECCENTRICITY>.0001584</ECCENTRICITY><INCLINATION>87.9078</INCLINATION><RA_OF_ASC_NODE>350.9448</RA_OF_ASC_NODE><ARG_OF_PERICENTER>105.6565</ARG_OF_PERICENTER><MEAN_ANOMALY>254.4739</MEAN_ANOMALY></meanElements><tleParameters><EPHEMERIS_TYPE>0</EPHEMERIS_TYPE><CLASSIFICATION_TYPE>U</CLASSIFICATION_TYPE><NORAD_CAT_ID>48221</NORAD_CAT_ID><ELEMENT_SET_NO>999</ELEMENT_SET_NO><REV_AT_EPOCH>20785</REV_AT_EPOCH><BSTAR>-.47655E-3</BSTAR><MEAN_MOTION_DOT>-.164E-5</MEAN_MOTION_DOT><MEAN_MOTION_DDOT>0</MEAN_MOTION_DDOT></tleParameters></data></segment></body></omm>
<omm id="CCSDS_OMM_VERS" version="2.0">
<header><CREATION_DATE/><ORIGINATOR/></header><body><segment><metadata><OBJECT_NAME>ONEWEB-0192</OBJECT_NAME><OBJECT_ID>2021-031N</OBJECT_ID><CENTER_NAME>EARTH</CENTER_NAME><REF_FRAME>TEME</REF_FRAME><TIME_SYSTEM>UTC</TIME_SYSTEM><MEAN_ELEMENT_THEORY>SGP4</MEAN_ELEMENT_THEORY></metadata><data><meanElements><EPOCH>2025-08-13T13:49:19.081920</EPOCH><MEAN_MOTION>13.14501396</MEAN_MOTION><ECCENTRICITY>.0001747</ECCENTRICITY><INCLINATION>87.9087</INCLINATION><RA_OF_ASC_NODE>350.9438</RA_OF_ASC_NODE><ARG_OF_PERICENTER>96.5230</ARG_OF_PERICENTER><MEAN_ANOMALY>263.6099</MEAN_ANOMALY></meanElements><tleParameters><EPHEMERIS_TYPE>0</EPHEMERIS_TYPE><CLASSIFICATION_TYPE>U</CLASSIFICATION_TYPE><NORAD_CAT_ID>48222</NORAD_CAT_ID><ELEMENT_SET_NO>999</ELEMENT_SET_NO><REV_AT_EPOCH>20776</REV_AT_EPOCH><BSTAR>.61718E-3</BSTAR><MEAN_MOTION_DOT>.242E-5</MEAN_MOTION_DOT><MEAN_MOTION_DDOT>0</MEAN_MOTION_DDOT></tleParameters></data></segment></body></omm>
<omm id="CCSDS_OMM_VERS" version="2.0">
<header><CREATION_DATE/><ORIGINATOR/></header><body><segment><metadata><OBJECT_NAME>ONEWEB-0219</OBJECT_NAME><OBJECT_ID>2021-031P</OBJECT_ID><CENTER_NAME>EARTH</CENTER_NAME><REF_FRAME>TEME</REF_FRAME><TIME_SYSTEM>UTC</TIME_SYSTEM><MEAN_ELEMENT_THEORY>SGP4</MEAN_ELEMENT_THEORY></metadata><data><meanElements><EPOCH>2025-08-13T07:50:47.649696</EPOCH><MEAN_MOTION>13.14505693</MEAN_MOTION><ECCENTRICITY>.0001644</ECCENTRICITY><INCLINATION>87.9080</INCLINATION><RA_OF_ASC_NODE>350.9655</RA_OF_ASC_NODE><ARG_OF_PERICENTER>107.2536</ARG_OF_PERICENTER><MEAN_ANOMALY>252.8774</MEAN_ANOMALY></meanElements><tleParameters><EPHEMERIS_TYPE>0</EPHEMERIS_TYPE><CLASSIFICATION_TYPE>U</CLASSIFICATION_TYPE><NORAD_CAT_ID>48223</NORAD_CAT_ID><ELEMENT_SET_NO>999</ELEMENT_SET_NO><REV_AT_EPOCH>20793</REV_AT_EPOCH><BSTAR>.50429E-3</BSTAR><MEAN_MOTION_DOT>.2E-5</MEAN_MOTION_DOT><MEAN_MOTION_DDOT>0</MEAN_MOTION_DDOT></tleParameters></data></segment></body></omm>
<omm id="CCSDS_OMM_VERS" version="2.0">
<header><CREATION_DATE/><ORIGINATOR/></header><body><segment><metadata><OBJECT_NAME>ONEWEB-0202</OBJECT_NAME><OBJECT_ID>2021-031Q</OBJECT_ID><CENTER_NAME>EARTH</CENTER_NAME><REF_FRAME>TEME</REF_FRAME><TIME_SYSTEM>UTC</TIME_SYSTEM><MEAN_ELEMENT_THEORY>SGP4</MEAN_ELEMENT_THEORY></metadata><data><meanElements><EPOCH>2025-08-13T14:41:49.302816</EPOCH><MEAN_MOTION>13.14501021</MEAN_MOTION><ECCENTRICITY>.0001196</ECCENTRICITY><INCLINATION>87.9084</INCLINATION><RA_OF_ASC_NODE>350.9232</RA_OF_ASC_NODE><ARG_OF_PERICENTER>81.4659</ARG_OF_PERICENTER><MEAN_ANOMALY>278.6606</MEAN_ANOMALY></meanElements><tleParameters><EPHEMERIS_TYPE>0</EPHEMERIS_TYPE><CLASSIFICATION_TYPE>U</CLASSIFICATION_TYPE><NORAD_CAT_ID>48224</NORAD_CAT_ID><ELEMENT_SET_NO>999</ELEMENT_SET_NO><REV_AT_EPOCH>20795</REV_AT_EPOCH><BSTAR>-.50233E-3</BSTAR><MEAN_MOTION_DOT>-.173E-5</MEAN_MOTION_DOT><MEAN_MOTION_DDOT>0</MEAN_MOTION_DDOT></tleParameters></data></segment></body></omm>
<omm id="CCSDS_OMM_VERS" version="2.0">
<header><CREATION_DATE/><ORIGINATOR/></header><body><segment><metadata><OBJECT_NAME>ONEWEB-0204</OBJECT_NAME><OBJECT_ID>2021-031R</OBJECT_ID><CENTER_NAME>EARTH</CENTER_NAME><REF_FRAME>TEME</REF_FRAME><TIME_SYSTEM>UTC</TIME_SYSTEM><MEAN_ELEMENT_THEORY>SGP4</MEAN_ELEMENT_THEORY></metadata><data><meanElements><EPOCH>2025-08-13T02:43:40.058112</EPOCH><MEAN_MOTION>13.14501052</MEAN_MOTION><ECCENTRICITY>.000204</ECCENTRICITY><INCLINATION>87.9068</INCLINATION><RA_OF_ASC_NODE>351.0153</RA_OF_ASC_NODE><ARG_OF_PERICENTER>104.8904</ARG_OF_PERICENTER><MEAN_ANOMALY>255.2452</MEAN_ANOMALY></meanElements><tleParameters><EPHEMERIS_TYPE>0</EPHEMERIS_TYPE><CLASSIFICATION_TYPE>U</CLASSIFICATION_TYPE><NORAD_CAT_ID>48225</NORAD_CAT_ID><ELEMENT_SET_NO>999</ELEMENT_SET_NO><REV_AT_EPOCH>20778</REV_AT_EPOCH><BSTAR>.45124E-3</BSTAR><MEAN_MOTION_DOT>.18E-5</MEAN_MOTION_DOT><MEAN_MOTION_DDOT>0</MEAN_MOTION_DDOT></tleParameters></data></segment></body></omm>

</ndm>
