ONEWEB-0196             
1 48218U 21031J   25225.32061769  .00000004  00000+0 -22809-4 0  9999
2 48218  87.9082 350.9774 0001678  98.9204 261.2116 13.14503473207782
ONEWEB-0183             
1 48219U 21031K   25225.59969844 -.00000106  00000+0 -32078-3 0  9992
2 48219  87.9080 350.9334 0001932 104.1694 255.9650 13.14504188207911
ONEWEB-0185             
1 48220U 21031L   25225.32139550  .00000013  00000+0 -10810-6 0  9997
2 48220  87.9079 350.9543 0001733 112.3442 247.7872 13.14502056207809
ONEWEB-0187             
1 48221U 21031M   25225.60590960 -.00000164  00000+0 -47655-3 0  9997
2 48221  87.9078 350.9448 0001584 105.6565 254.4739 13.14502861207854
ONEWEB-0192             
1 48222U 21031N   25225.57591530  .00000242  00000+0  61718-3 0  9999
2 48222  87.9087 350.9438 0001747  96.5230 263.6099 13.14501396207765
ONEWEB-0219             
1 48223U 21031P   25225.32694039  .00000200  00000+0  50429-3 0  9992
2 48223  87.9080 350.9655 0001644 107.2536 252.8774 13.14505693207938
ONEWEB-0202             
1 48224U 21031Q   25225.61237619 -.00000173  00000+0 -50233-3 0  9996
2 48224  87.9084 350.9232 0001196  81.4659 278.6606 13.14501021207958
ONEWEB-0204             
1 48225U 21031R   25225.11365808  .00000180  00000+0  45124-3 0  9993
2 48225  87.9068 351.0153 0002040 104.8904 255.2452 13.14501052207782
